1 90000           19337.16666667 -.00000112  00000-0 -24081-3 0 00003
2 90000 052.9085 100.5863 0007929 268.8491 113.6510 13.29205708000013
1 90001           19337.16666667 -.00000054  00000-0 -11639-3 0 00004
2 90001 052.9085 100.5863 0007929 268.8551 120.8450 13.29205651000011
1 90002           19337.16666667  .00000008  00000-0  17907-4 0 00007
2 90002 052.9085 100.5863 0007929 268.8614 128.0387 13.29205590000013
1 90003           19337.16666667  .00000070  00000-0  15120-3 0 00001
2 90003 052.9085 100.5863 0007929 268.8677 135.2325 13.29205528000016
1 90004           19337.16666667  .00000127  00000-0  27282-3 0 00007
2 90004 052.9085 100.5863 0007929 268.8735 142.4267 13.29205470000013
1 90005           19337.16666667  .00000173  00000-0  37302-3 0 00003
2 90005 052.9085 100.5863 0007928 268.8787 149.6215 13.29205423000010
1 90006           19337.16666667  .00000206  00000-0  44349-3 0 00000
2 90006 052.9085 100.5863 0007928 268.8830 156.8173 13.29205389000014
1 90007           19337.16666667  .00000222  00000-0  47783-3 0 00004
2 90007 052.9085 100.5863 0007927 268.8861 164.0142 13.29205371000016
1 90008           19337.16666667  .00000219  00000-0  47208-3 0 00003
2 90008 052.9085 100.5863 0007926 268.8881 171.2121 13.29205373000017
1 90009           19337.16666667  .00000197  00000-0  42494-3 0 00001
2 90009 052.9085 100.5863 0007926 268.8891 178.4112 13.29205394000011
1 90010           19337.16666667  .00000157  00000-0  33792-3 0 00000
2 90010 052.9085 100.5863 0007925 268.8891 185.6112 13.29205436000019
1 90011           19337.16666667  .00000100  00000-0  21521-3 0 00006
2 90011 052.9085 100.5863 0007924 268.8883 192.8119 13.29205494000011
1 90012           19337.16666667  .00000029  00000-0  63419-4 0 00000
2 90012 052.9085 100.5863 0007924 268.8871 200.0131 13.29205568000017
1 90013           19337.16666667 -.00000050  00000-0 -10871-3 0 00000
2 90013 052.9085 100.5863 0007923 268.8856 207.2144 13.29205653000018
1 90014           19337.16666667 -.00000135  00000-0 -29088-3 0 00005
2 90014 052.9085 100.5863 0007923 268.8842 214.4157 13.29205744000019
1 90015           19337.16666667 -.00000219  00000-0 -47191-3 0 00004
2 90015 052.9085 100.5863 0007923 268.8831 221.6168 13.29205835000011
1 90016           19337.16666667 -.00000297  00000-0 -64049-3 0 00002
2 90016 052.9085 100.5863 0007922 268.8822 228.8177 13.29205922000017
1 90017           19337.16666667 -.00000364  00000-0 -78571-3 0 00003
2 90017 052.9085 100.5863 0007922 268.8815 236.0183 13.29206000000016
1 90018           19337.16666667 -.00000416  00000-0 -89773-3 0 00008
2 90018 052.9085 100.5863 0007922 268.8810 243.2187 13.29206063000015
1 90019           19337.16666667 -.00000449  00000-0 -96841-3 0 00009
2 90019 052.9085 100.5863 0007921 268.8805 250.4192 13.29206107000014
1 90020           19337.16666667 -.00000460  00000-0 -99247-3 0 00007
2 90020 052.9085 100.5863 0007921 268.8795 257.6202 13.29206130000011
1 90021           19337.16666667 -.00000449  00000-0 -96737-3 0 00006
2 90021 052.9085 100.5863 0007921 268.8783 264.8214 13.29206130000012
1 90022           19337.16666667 -.00000414  00000-0 -89299-3 0 00004
2 90022 052.9085 100.5863 0007920 268.8766 272.0231 13.29206106000016
1 90023           19337.16666667 -.00000358  00000-0 -77231-3 0 00005
2 90023 052.9085 100.5863 0007920 268.8743 279.2254 13.29206060000015
1 90024           19337.16666667 -.00000283  00000-0 -61105-3 0 00006
2 90024 052.9085 100.5863 0007920 268.8715 286.4282 13.29205993000010
1 90025           19337.16666667 -.00000194  00000-0 -41760-3 0 00003
2 90025 052.9085 100.5863 0007919 268.8682 293.6316 13.29205909000017
1 90026           19337.16666667 -.00000093  00000-0 -20148-3 0 00009
2 90026 052.9085 100.5863 0007919 268.8644 300.8355 13.29205812000013
1 90027           19337.16666667  .00000012  00000-0  25880-4 0 00008
2 90027 052.9085 100.5863 0007919 268.8604 308.0395 13.29205708000018
1 90028           19337.16666667  .00000117  00000-0  25214-3 0 00005
2 90028 052.9085 100.5863 0007919 268.8565 315.2435 13.29205602000013
1 90029           19337.16666667  .00000216  00000-0  46524-3 0 00003
2 90029 052.9085 100.5863 0007919 268.8529 322.4472 13.29205499000019
1 90030           19337.16666667  .00000303  00000-0  65406-3 0 00002
2 90030 052.9085 100.5863 0007920 268.8497 329.6505 13.29205406000011
1 90031           19337.16666667  .00000375  00000-0  80898-3 0 00004
2 90031 052.9085 100.5863 0007920 268.8470 336.8532 13.29205326000014
1 90032           19337.16666667  .00000428  00000-0  92229-3 0 00005
2 90032 052.9085 100.5863 0007921 268.8449 344.0554 13.29205264000018
1 90033           19337.16666667  .00000459  00000-0  98865-3 0 00002
2 90033 052.9085 100.5863 0007921 268.8433 351.2570 13.29205222000014
1 90034           19337.16666667  .00000466  00000-0  10055-2 0 00005
2 90034 052.9085 100.5863 0007921 268.8422 358.4581 13.29205203000013
1 90035           19337.16666667  .00000451  00000-0  97321-3 0 00002
2 90035 052.9085 100.5863 0007922 268.8415 005.6589 13.29205206000019
1 90036           19337.16666667  .00000415  00000-0  89506-3 0 00009
2 90036 052.9085 100.5863 0007922 268.8409 012.8594 13.29205230000016
1 90037           19337.16666667  .00000360  00000-0  77699-3 0 00009
2 90037 052.9085 100.5863 0007922 268.8403 020.0600 13.29205274000018
1 90038           19337.16666667  .00000291  00000-0  62725-3 0 00007
2 90038 052.9085 100.5863 0007923 268.8396 027.2607 13.29205334000014
1 90039           19337.16666667  .00000211  00000-0  45581-3 0 00001
2 90039 052.9085 100.5863 0007923 268.8386 034.4617 13.29205404000013
1 90040           19337.16666667  .00000127  00000-0  27366-3 0 00000
2 90040 052.9085 100.5863 0007923 268.8373 041.6629 13.29205481000019
1 90041           19337.16666667  .00000043  00000-0  92152-4 0 00004
2 90041 052.9085 100.5863 0007924 268.8359 048.8643 13.29205559000016
1 90042           19337.16666667 -.00000036  00000-0 -77607-4 0 00007
2 90042 052.9085 100.5863 0007924 268.8345 056.0656 13.29205633000010
1 90043           19337.16666667 -.00000105  00000-0 -22539-3 0 00008
2 90043 052.9085 100.5863 0007924 268.8333 063.2668 13.29205698000012
1 90044           19337.16666667 -.00000159  00000-0 -34257-3 0 00008
2 90044 052.9085 100.5863 0007925 268.8325 070.4675 13.29205751000013
1 90045           19337.16666667 -.00000196  00000-0 -42322-3 0 00002
2 90045 052.9085 100.5863 0007926 268.8327 077.6673 13.29205788000014
1 90046           19337.16666667 -.00000215  00000-0 -46337-3 0 00005
2 90046 052.9085 100.5863 0007927 268.8338 084.8662 13.29205807000018
1 90047           19337.16666667 -.00000214  00000-0 -46206-3 0 00000
2 90047 052.9085 100.5863 0007927 268.8360 092.0640 13.29205807000011
1 90048           19337.16666667 -.00000195  00000-0 -42108-3 0 00006
2 90048 052.9085 100.5863 0007928 268.8393 099.2607 13.29205790000012
1 90049           19337.16666667 -.00000160  00000-0 -34490-3 0 00004
2 90049 052.9085 100.5863 0007929 268.8437 106.4563 13.29205756000017
